*******************************************************************************
Ephemeris / WWW_USER Mon Mar 24 08:45:43 2025 Pasadena, USA      / Horizons    
*******************************************************************************
Target body name: (2018 OZ)                       {source: JPL#6}
Center body name: Earth (399)                     {source: DE441}
Center-site name: Mauna Kea
*******************************************************************************
Start time      : A.D. 2018-Sep-04 04:44:00.0000 UT      
Stop  time      : A.D. 2018-Sep-04 15:57:00.0000 UT      
Step-size       : 1 minutes
*******************************************************************************
Target pole/equ : undefined
Target radii    : undefined                                                    
Center geodetic : 204.5278, 19.8260847, 4.21024   {E-lon(deg),Lat(deg),Alt(km)}
Center cylindric: 204.5278, 6006.35451, 2151.0229 {E-lon(deg),Dxy(km),Dz(km)}
Center pole/equ : ITRF93                          {East-longitude positive}
Center radii    : 6378.137, 6378.137, 6356.752 km {Equator_a, b, pole_c}       
Target primary  : Sun
Vis. interferer : MOON (R_eq= 1737.400) km        {source: DE441}
Rel. light bend : Sun                             {source: DE441}
Rel. lght bnd GM: 1.3271E+11 km^3/s^2                                          
Small-body perts: Yes                             {source: SB441-N16}
Atmos refraction: NO (AIRLESS)
RA format       : HMS
Time format     : CAL 
Calendar mode   : Mixed Julian/Gregorian
RTS-only print  : NO       
EOP file        : eop.250321.p250617                                           
EOP coverage    : DATA-BASED 1962-JAN-20 TO 2025-MAR-21. PREDICTS-> 2025-JUN-16
Units conversion: 1 au= 149597870.700 km, c= 299792.458 km/s, 1 day= 86400.0 s 
Table cut-offs 1: Elevation (-90.0deg=NO ),Airmass (>38.000=NO), Daylight (YES)
Table cut-offs 2: Solar elongation (  0.0,180.0=NO ),Local Hour Angle( 0.0=NO )
Table cut-offs 3: RA/DEC angular rate (     0.0=NO )                           
*******************************************************************************
Initial IAU76/J2000 heliocentric ecliptic osculating elements (au, days, deg.):
  EPOCH=  2458323.5 ! 2018-Jul-24.00 (TDB)         Residual RMS= .14478        
   EC= .2444891433359997   QR= .7813773137930096   TP= 2458414.1453434308      
   OM= 132.5941973996665   W=  282.5797798661226   IN= 11.86066121595313       
  Equivalent ICRF heliocentric cartesian coordinates (au, au/d):
   X= 5.818664496311505E-01  Y=-8.413793559776328E-01  Z=-3.233166781784031E-01
  VX= 1.092981696788880E-02 VY= 1.198494789184266E-02 VZ= 1.554952570596135E-03
Asteroid physical parameters (km, seconds, rotational period in hours):        
   GM= n.a.                RAD= n.a.               ROTPER= n.a.                
   H= 24.9                 G= .150                 B-V= n.a.                   
                           ALBEDO= n.a.            STYP= n.a.                  
*******************************************************************************
 Date__(UT)__HR:MN     R.A._________(ICRF)_________DEC
******************************************************
$$SOE
 2018-Sep-04 14:59 Am  08 36 37.934816 -20 14 15.51216
 2018-Sep-04 15:00 Am  08 36 38.002662 -20 14 15.02073
 2018-Sep-04 15:01 Am  08 36 38.070441 -20 14 14.52921
 2018-Sep-04 15:02 Am  08 36 38.138154 -20 14 14.03760
 2018-Sep-04 15:03 Am  08 36 38.205801 -20 14 13.54590
 2018-Sep-04 15:04 Am  08 36 38.273382 -20 14 13.05412
 2018-Sep-04 15:05 Am  08 36 38.340897 -20 14 12.56224
 2018-Sep-04 15:06 Am  08 36 38.408345 -20 14 12.07027
 2018-Sep-04 15:07 Am  08 36 38.475728 -20 14 11.57820
 2018-Sep-04 15:08 Am  08 36 38.543045 -20 14 11.08604
 2018-Sep-04 15:09 Am  08 36 38.610297 -20 14 10.59379
 2018-Sep-04 15:10 Am  08 36 38.677482 -20 14 10.10143
 2018-Sep-04 15:11 Am  08 36 38.744602 -20 14 09.60897
 2018-Sep-04 15:12 Am  08 36 38.811657 -20 14 09.11642
 2018-Sep-04 15:13 Am  08 36 38.878646 -20 14 08.62376
 2018-Sep-04 15:14 Am  08 36 38.945570 -20 14 08.13099
 2018-Sep-04 15:15 Am  08 36 39.012429 -20 14 07.63813
 2018-Sep-04 15:16 Am  08 36 39.079223 -20 14 07.14515
 2018-Sep-04 15:17 Am  08 36 39.145951 -20 14 06.65207
 2018-Sep-04 15:18 Am  08 36 39.212615 -20 14 06.15887
 2018-Sep-04 15:19 Nm  08 36 39.279214 -20 14 05.66557
 2018-Sep-04 15:20 Nm  08 36 39.345749 -20 14 05.17216
 2018-Sep-04 15:21 Nm  08 36 39.412218 -20 14 04.67863
 2018-Sep-04 15:22 Nm  08 36 39.478624 -20 14 04.18498
 2018-Sep-04 15:23 Nm  08 36 39.544964 -20 14 03.69122
 2018-Sep-04 15:24 Nm  08 36 39.611241 -20 14 03.19735
 2018-Sep-04 15:25 Nm  08 36 39.677453 -20 14 02.70335
 2018-Sep-04 15:26 Nm  08 36 39.743601 -20 14 02.20923
 2018-Sep-04 15:27 Nm  08 36 39.809686 -20 14 01.71499
 2018-Sep-04 15:28 Nm  08 36 39.875706 -20 14 01.22063
 2018-Sep-04 15:29 Nm  08 36 39.941663 -20 14 00.72615
 2018-Sep-04 15:30 Nm  08 36 40.007555 -20 14 00.23154
 2018-Sep-04 15:31 Nm  08 36 40.073385 -20 13 59.73680
 2018-Sep-04 15:32 Nm  08 36 40.139151 -20 13 59.24193
 2018-Sep-04 15:33 Nm  08 36 40.204854 -20 13 58.74694
 2018-Sep-04 15:34 Nm  08 36 40.270493 -20 13 58.25181
 2018-Sep-04 15:35 Nm  08 36 40.336069 -20 13 57.75655
 2018-Sep-04 15:36 Nm  08 36 40.401583 -20 13 57.26116
 2018-Sep-04 15:37 Nm  08 36 40.467033 -20 13 56.76563
 2018-Sep-04 15:38 Nm  08 36 40.532421 -20 13 56.26997
 2018-Sep-04 15:39 Nm  08 36 40.597747 -20 13 55.77416
 2018-Sep-04 15:40 Nm  08 36 40.663009 -20 13 55.27822
 2018-Sep-04 15:41 Nm  08 36 40.728210 -20 13 54.78214
 2018-Sep-04 15:42 Nm  08 36 40.793348 -20 13 54.28592
 2018-Sep-04 15:43 Nm  08 36 40.858424 -20 13 53.78956
 2018-Sep-04 15:44 Nm  08 36 40.923438 -20 13 53.29305
 2018-Sep-04 15:45 Cm  08 36 40.988391 -20 13 52.79639
 2018-Sep-04 15:46 Cm  08 36 41.053281 -20 13 52.29959
 2018-Sep-04 15:47 Cm  08 36 41.118110 -20 13 51.80264
 2018-Sep-04 15:48 Cm  08 36 41.182878 -20 13 51.30554
 2018-Sep-04 15:49 Cm  08 36 41.247584 -20 13 50.80829
 2018-Sep-04 15:50 Cm  08 36 41.312229 -20 13 50.31089
 2018-Sep-04 15:51 Cm  08 36 41.376813 -20 13 49.81334
 2018-Sep-04 15:52 Cm  08 36 41.441336 -20 13 49.31563
 2018-Sep-04 15:53 Cm  08 36 41.505798 -20 13 48.81776
 2018-Sep-04 15:54 Cm  08 36 41.570200 -20 13 48.31974
 2018-Sep-04 15:55 Cm  08 36 41.634541 -20 13 47.82156
 2018-Sep-04 15:56 Cm  08 36 41.698822 -20 13 47.32322
 2018-Sep-04 15:57 Cm  08 36 41.763042 -20 13 46.82472
